NORAD_CAT_ID,OBJECT_NAME,OBJECT_TYPE,EPOCH,MEAN_MOTION,ECCENTRICITY,INCLINATION,RA_OF_ASC_NODE,ARG_OF_PERICENTER,MEAN_ANOMALY,BSTAR,MEAN_MOTION_DOT,MEAN_MOTION_DDOT,TLE_LINE0,TLE_LINE1,TLE_LINE2,SEMIMAJOR_AXIS,PERIOD,APOGEE,PERIGEE,DECAYED
51994.0,STARLINK-3647,PAYLOAD,2023-11-06 13:34:19,15.08853466,0.0001106,53.2158,253.4343,98.2293,261.8824,6.8508e-05,8.03e-06,0.0,0 STARLINK-3647,1 51994U 22025AQ  23310.56550382  .00000803  00000-0  68508-4 0  9994,2 51994  53.2158 253.4343 0001106  98.2293 261.8824 15.08853466 91972,6917.839,95.437,540.469,538.939,0.0
51994.0,STARLINK-3647,PAYLOAD,2023-11-07 03:52:48,15.08850921,0.0001464,53.2165,250.7575,96.5851,263.5308,7.2565e-05,8.67e-06,0.0,0 STARLINK-3647,1 51994U 22025AQ  23311.16166724  .00000867  00000-0  72565-4 0  9992,2 51994  53.2165 250.7575 0001464  96.5851 263.5308 15.08850921 93594,6917.847,95.437,540.725,538.699,0.0
51994.0,STARLINK-3647,PAYLOAD,2023-11-07 13:25:07,15.0882985,0.0001686,53.2164,248.9731,88.2083,271.9102,-0.00028454,-4.812e-05,0.0,0 STARLINK-3647,1 51994U 22025AQ  23311.55911532 -.00004812  00000-0 -28454-3 0  9993,2 51994  53.2164 248.9731 0001686  88.2083 271.9102 15.08829850 92127,6917.911,95.438,540.943,538.61,0.0
51994.0,STARLINK-3647,PAYLOAD,2023-11-08 05:18:59,15.08839157,0.0001581,53.2176,245.9983,92.9017,267.2156,-0.00017519,-3.075e-05,0.0,0 STARLINK-3647,1 51994U 22025AQ  23312.22151859 -.00003075  00000-0 -17519-3 0  9996,2 51994  53.2176 245.9983 0001581  92.9017 267.2156 15.08839157 93757,6917.883,95.438,540.842,538.654,0.0
51994.0,STARLINK-3647,PAYLOAD,2023-11-08 22:48:14,15.08833074,0.0001851,53.2185,242.7274,103.4887,256.6311,0.00029474,4.405e-05,0.0,0 STARLINK-3647,1 51994U 22025AQ  23312.95016935  .00004405  00000-0  29474-3 0  9990,2 51994  53.2185 242.7274 0001851 103.4887 256.6311 15.08833074 92338,6917.902,95.438,541.047,538.486,0.0
51994.0,STARLINK-3647,PAYLOAD,2023-11-09 05:09:46,15.08851732,0.0001591,53.2166,241.5359,104.0508,256.0661,0.00037457,5.68e-05,0.0,0 STARLINK-3647,1 51994U 22025AQ  23313.21511951  .00005680  00000-0  37457-3 0  9994,2 51994  53.2166 241.5359 0001591 104.0508 256.0661 15.08851732 93903,6917.845,95.437,540.81,538.609,0.0
51994.0,STARLINK-3647,PAYLOAD,2023-11-09 22:39:02,15.08830274,0.0001441,53.2169,238.2662,111.1103,249.0043,0.00020137,2.917e-05,0.0,0 STARLINK-3647,1 51994U 22025AQ  23313.94377332  .00002917  00000-0  20137-3 0  9994,2 51994  53.2169 238.2662 0001441 111.1103 249.0043 15.08830274 92486,6917.91,95.438,540.772,538.778,0.0
51994.0,STARLINK-3647,PAYLOAD,2023-11-10 01:49:47,15.08844967,0.0001411,53.2175,237.6724,99.7021,260.4131,0.00025205,3.726e-05,0.0,0 STARLINK-3647,1 51994U 22025AQ  23314.07624751  .00003726  00000-0  25205-3 0  9999,2 51994  53.2175 237.6724 0001411  99.7021 260.4131 15.08844967 94034,6917.865,95.437,540.706,538.754,0.0
51994.0,STARLINK-3647,PAYLOAD,2023-11-11 00:05:11,15.08841978,0.0001356,53.2162,233.5061,95.524,264.5907,-3.9357e-05,-9.14e-06,0.0,0 STARLINK-3647,1 51994U 22025AQ  23315.00360780 -.00000914  00000-0 -39357-4 0  9994,2 51994  53.2162 233.5061 0001356  95.5240 264.5907 15.08841978 94174,6917.874,95.437,540.677,538.801,0.0
51994.0,STARLINK-3647,PAYLOAD,2023-11-11 11:12:53,15.08841897,0.0001348,53.2166,231.427,95.0858,265.0288,-2.8156e-05,-7.36e-06,0.0,0 STARLINK-3647,1 51994U 22025AQ  23315.46728818 -.00000736  00000-0 -28156-4 0  9991,2 51994  53.2166 231.4270 0001348  95.0858 265.0288 15.08841897 92714,6917.875,95.437,540.672,538.807,0.0
51994.0,STARLINK-3647,PAYLOAD,2023-11-11 19:09:50,15.08832902,0.0001369,53.217,229.9429,105.3146,254.7998,0.0001008,1.316e-05,0.0,0 STARLINK-3647,1 51994U 22025AQ  23315.79849550  .00001316  00000-0  10080-3 0  9993,2 51994  53.2170 229.9429 0001369 105.3146 254.7998 15.08832902 94290,6917.902,95.438,540.714,538.82,0.0
51994.0,STARLINK-3647,PAYLOAD,2023-11-11 22:20:36,15.08839024,0.0001339,53.217,229.3486,97.3484,262.766,-3.4318e-05,-8.34e-06,0.0,0 STARLINK-3647,1 51994U 22025AQ  23315.93097270 -.00000834  00000-0 -34318-4 0  9990,2 51994  53.2170 229.3486 0001339  97.3484 262.7660 15.08839024 92788,6917.883,95.438,540.675,538.822,0.0
51994.0,STARLINK-3647,PAYLOAD,2023-11-12 11:03:41,15.08842257,0.0001374,53.2181,226.9706,99.049,261.0658,5.5084e-05,5.89e-06,0.0,0 STARLINK-3647,1 51994U 22025AQ  23316.46089260  .00000589  00000-0  55084-4 0  9997,2 51994  53.2181 226.9706 0001374  99.0490 261.0658 15.08842257 92863,6917.873,95.437,540.689,538.788,0.0
51994.0,STARLINK-3647,PAYLOAD,2023-11-12 22:11:23,15.08830777,0.0001446,53.2185,224.8896,102.1401,257.9753,0.00015741,2.218e-05,0.0,0 STARLINK-3647,1 51994U 22025AQ  23316.92457969  .00002218  00000-0  15741-3 0  9999,2 51994  53.2185 224.8896 0001446 102.1401 257.9753 15.08830777 92934,6917.909,95.438,540.774,538.773,0.0
51994.0,STARLINK-3647,PAYLOAD,2023-11-13 02:57:30,15.08863901,0.0001369,53.2177,223.9972,106.3025,253.8118,0.00033415,5.037e-05,0.0,0 STARLINK-3647,1 51994U 22025AQ  23317.12327396  .00005037  00000-0  33415-3 0  9992,2 51994  53.2177 223.9972 0001369 106.3025 253.8118 15.08863901 94490,6917.807,95.436,540.619,538.725,0.0
51994.0,STARLINK-3647,PAYLOAD,2023-11-13 10:54:27,15.08846729,0.0002177,53.2184,222.5106,81.4974,278.6265,0.00018019,2.581e-05,0.0,0 STARLINK-3647,1 51994U 22025AQ  23317.45449029  .00002581  00000-0  18019-3 0  9990,2 51994  53.2184 222.5106 0002177  81.4974 278.6265 15.08846729 94549,6917.86,95.437,541.231,538.219,0.0
51994.0,STARLINK-3647,PAYLOAD,2023-11-14 01:12:57,15.0883107,0.0001336,53.2181,219.8335,82.6544,277.46,-2.2129e-05,-6.4e-06,0.0,0 STARLINK-3647,1 51994U 22025AQ  23318.05066325 -.00000640  00000-0 -22129-4 0  9995,2 51994  53.2181 219.8335 0001336  82.6544 277.4600 15.08831070 94634,6917.908,95.438,540.697,538.848,0.0
51994.0,STARLINK-3647,PAYLOAD,2023-11-14 10:45:19,15.08792417,0.0001591,53.2182,218.0492,78.6525,281.4646,-0.00033707,-5.641e-05,0.0,0 STARLINK-3647,1 51994U 22025AQ  23318.44814444 -.00005641  00000-0 -33707-3 0  9990,2 51994  53.2182 218.0492 0001591  78.6525 281.4646 15.08792417 94699,6918.026,95.441,540.991,538.79,0.0
51994.0,STARLINK-3647,PAYLOAD,2023-11-14 17:06:50,15.08814104,6.13e-05,53.218,216.8568,51.7878,308.3169,-5.6765e-05,-1.19e-05,0.0,0 STARLINK-3647,1 51994U 22025AQ  23318.71308447 -.00001190  00000-0 -56765-4 0  9996,2 51994  53.2180 216.8568 0000613  51.7878 308.3169 15.08814104 94736,6917.96,95.439,540.249,539.4,0.0
51994.0,STARLINK-3647,PAYLOAD,2023-11-15 02:39:07,15.0885689,0.0001101,53.2174,215.0737,86.7495,273.3623,-5.119e-05,-1.103e-05,0.0,0 STARLINK-3647,1 51994U 22025AQ  23319.11049918 -.00001103  00000-0 -51190-4 0  9997,2 51994  53.2174 215.0737 0001101  86.7495 273.3623 15.08856890 94794,6917.829,95.436,540.455,538.932,0.0
51994.0,STARLINK-3647,PAYLOAD,2023-11-15 20:08:21,15.08845315,0.0001199,53.2183,211.8021,72.5583,287.554,0.00027685,4.122e-05,0.0,0 STARLINK-3647,1 51994U 22025AQ  23319.83913556  .00004122  00000-0  27685-3 0  9997,2 51994  53.2183 211.8021 0001199  72.5583 287.5540 15.08845315 93370,6917.864,95.437,540.559,538.9,0.0
51994.0,STARLINK-3647,PAYLOAD,2023-11-15 23:19:07,15.0884601,0.0001153,53.2181,211.2077,76.6503,283.4617,0.00027375,4.072e-05,0.0,0 STARLINK-3647,1 51994U 22025AQ  23319.97161538  .00004072  00000-0  27375-3 0  9997,2 51994  53.2181 211.2077 0001153  76.6503 283.4617 15.08846010 94925,6917.862,95.437,540.525,538.929,0.0
51994.0,STARLINK-3647,PAYLOAD,2023-11-16 16:48:22,15.08842609,9.54e-05,53.2195,207.9379,77.5499,282.56,0.00024516,3.616e-05,0.0,0 STARLINK-3647,1 51994U 22025AQ  23320.70025896  .00003616  00000-0  24516-3 0  9993,2 51994  53.2195 207.9379 0000954  77.5499 282.5600 15.08842609 95034,6917.872,95.437,540.397,539.077,0.0
51994.0,STARLINK-3647,PAYLOAD,2023-11-16 23:09:54,15.08841053,8.93e-05,53.2202,206.7476,85.9474,274.1621,0.00025131,3.714e-05,0.0,0 STARLINK-3647,1 51994U 22025AQ  23320.96521867  .00003714  00000-0  25131-3 0  9993,2 51994  53.2202 206.7476 0000893  85.9474 274.1621 15.08841053 93542,6917.877,95.437,540.36,539.124,0.0
51994.0,STARLINK-3647,PAYLOAD,2023-11-17 02:20:40,15.08851878,0.0001474,53.2195,206.1542,90.6332,269.4829,3.2815e-05,2.34e-06,0.0,0 STARLINK-3647,1 51994U 22025AQ  23321.09769649  .00000234  00000-0  32815-4 0  9992,2 51994  53.2195 206.1542 0001474  90.6332 269.4829 15.08851878 93568,6917.844,95.437,540.729,538.689,0.0
51994.0,STARLINK-3647,PAYLOAD,2023-11-17 23:00:42,15.08844951,0.0001532,53.2155,202.2889,90.4022,269.7146,-0.00014494,-2.594e-05,0.0,0 STARLINK-3647,1 51994U 22025AQ  23321.95882177 -.00002594  00000-0 -14494-3 0  9994,2 51994  53.2155 202.2889 0001532  90.4022 269.7146 15.08844951 93697,6917.865,95.437,540.79,538.67,0.0
51994.0,STARLINK-3647,PAYLOAD,2023-11-18 22:51:28,15.08850857,0.0001363,53.2165,197.8256,97.7489,262.3658,-8.3436e-05,-1.616e-05,0.0,0 STARLINK-3647,1 51994U 22025AQ  23322.95241435 -.00001616  00000-0 -83436-4 0  9998,2 51994  53.2165 197.8256 0001363  97.7489 262.3658 15.08850857 93840,6917.847,95.437,540.655,538.769,0.0
51994.0,STARLINK-3647,PAYLOAD,2023-11-19 08:23:47,15.08841994,0.0001359,53.2172,196.0429,91.4808,268.634,1.3614e-05,-7.1e-07,0.0,0 STARLINK-3647,1 51994U 22025AQ  23323.34985803 -.00000071  00000-0  13614-4 0  9990,2 51994  53.2172 196.0429 0001359  91.4808 268.6340 15.08841994 95438,6917.874,95.437,540.679,538.799,0.0
51994.0,STARLINK-3647,PAYLOAD,2023-11-19 22:42:16,15.08837439,0.0001364,53.217,193.3676,91.0589,269.0559,7.1107e-05,8.44e-06,0.0,0 STARLINK-3647,1 51994U 22025AQ  23323.94602076  .00000844  00000-0  71107-4 0  9992,2 51994  53.2170 193.3676 0001364  91.0589 269.0559 15.08837439 93993,6917.888,95.438,540.697,538.81,0.0
51994.0,STARLINK-3647,PAYLOAD,2023-11-20 08:14:35,15.08837821,0.0001351,53.2166,191.5829,88.9653,271.1494,6.98e-05,8.23e-06,0.0,0 STARLINK-3647,1 51994U 22025AQ  23324.34346145  .00000823  00000-0  69800-4 0  9993,2 51994  53.2166 191.5829 0001351  88.9653 271.1494 15.08837821 95585,6917.887,95.438,540.687,538.817,0.0
